ONEWEB-0271             
1 48989U 21060Y   25085.16876490  .00000207  00000+0  50880-3 0  9990
2 48989  87.9070 318.0772 0001925  76.4533 283.6812 13.16592846182000
ONEWEB-0272             
1 48990U 21060Z   25085.19092659  .00000081  00000+0  17887-3 0  9992
2 48990  87.9073 318.1048 0001909  77.6247 282.5097 13.16593505181969
ONEWEB-0273             
1 48991U 21060AA  25084.90911846 -.00000060  00000+0 -18953-3 0  9993
2 48991  87.9073 318.1459 0001717  74.5984 285.5336 13.16593026181908
ONEWEB-0274             
1 48992U 21060AB  25085.16243514  .00000152  00000+0  36300-3 0  9999
2 48992  87.9077 318.1281 0002136  86.7618 273.3757 13.16592606181973
ONEWEB-0275             
1 48993U 21060AC  25085.15134751  .00000117  00000+0  27215-3 0  9997
2 48993  87.9070 318.0919 0001843  80.4113 279.7226 13.16592399181890
ONEWEB-0276             
1 48994U 21060AD  25085.18460081  .00000132  00000+0  31156-3 0  9995
2 48994  87.9070 318.0818 0001741  72.6580 287.4741 13.16590200181928
ONEWEB-0277             
1 48995U 21060AE  25084.89327990  .00000031  00000+0  46611-4 0  9995
2 48995  87.9074 318.1768 0002068  73.0687 287.0670 13.16593526181868
ONEWEB-0278             
1 48996U 21060AF  25084.88377900  .00000152  00000+0  36446-3 0  9999
2 48996  87.9071 318.1386 0001504  79.8047 280.3254 13.16593325180703
ONEWEB-0279             
1 48997U 21060AG  25084.89168728 -.00000067  00000+0 -20997-3 0  9998
2 48997  87.9073 318.1333 0002064  77.1959 282.9402 13.16592542180638
ONEWEB-0280             
1 48998U 21060AH  25084.90673486  .00000020  00000+0  19562-4 0  9997
2 48998  87.9072 318.1357 0001646  69.1143 291.0164 13.16595535180579
ONEWEB-0281             
1 48999U 21060AJ  25084.91227185 -.00000076  00000+0 -23343-3 0  9994
2 48999  87.9071 318.1334 0001836  85.7768 274.3573 13.16591969180645
ONEWEB-0282             
1 49000U 21060AK  25085.17035830  .00000169  00000+0  40906-3 0  9996
2 49000  87.9070 318.0987 0001819  75.0347 285.0985 13.16593960181973
ONEWEB-0283             
1 49001U 21060AL  25085.15928002  .00000190  00000+0  46469-3 0  9991
2 49001  87.9069 318.1044 0001880  77.4976 282.6366 13.16594169181988
ONEWEB-0284             
1 49002U 21060AM  25085.15293202  .00000128  00000+0  30070-3 0  9991
2 49002  87.9062 318.0727 0001412  77.7470 282.3819 13.16592961181957
ONEWEB-0285             
1 49075U 21075A   25084.93825247 -.00000243  00000+0 -71103-3 0  9994
2 49075  87.8807  79.8651 0001845  86.7883 273.3456 13.12443183176418
ONEWEB-0286             
1 49076U 21075B   25084.90971271  .00000166  00000+0  42550-3 0  9997
2 49076  87.8830  79.8671 0001821  95.5609 264.5728 13.12441472175765
ONEWEB-0287             
1 49077U 21075C   25084.76355779  .00000089  00000+0  19517-3 0  9992
2 49077  87.9000  95.1807 0001718 104.6708 255.4614 13.17651447174576
ONEWEB-0288             
1 49078U 21075D   25084.97217393  .00000525  00000+0  14240-2 0  9997
2 49078  87.8801  79.8549 0001700  87.9729 272.1594 13.12441754176392
ONEWEB-0289             
1 49079U 21075E   25085.02006406  .00000114  00000+0  26101-3 0  9990
2 49079  87.9003  95.1602 0001515  78.4022 281.7279 13.17651845176153
ONEWEB-0290             
1 49080U 21075F   25084.77538164  .00000073  00000+0  15473-3 0  9998
2 49080  87.8998  95.1662 0001734  68.6488 291.4828 13.17651067174560
ONEWEB-0291             
1 49081U 21075G   25084.45646862 -.00000002  00000+0 -37312-4 0  9990
2 49081  87.8994  95.2373 0001657  92.3702 267.7619 13.17649822174519
ONEWEB-0293             
1 49082U 21075H   25084.78552415  .00000078  00000+0  16640-3 0  9998
2 49082  87.9001  95.1996 0001845  87.0748 273.0595 13.17650441174589
ONEWEB-0294             
1 49083U 21075J   25084.90242470  .00000348  00000+0  93283-3 0  9998
2 49083  87.8803  79.8681 0001447  76.1086 284.0204 13.12442075175779
ONEWEB-0295             
1 49084U 21075K   25084.78467514  .00000047  00000+0  88059-4 0  9995
2 49084  87.9015  95.1817 0001628  99.2086 260.9229 13.17648432174549
ONEWEB-0296             
1 49085U 21075L   25084.95919485  .00000316  00000+0  84168-3 0  9999
2 49085  87.8806  79.8635 0001268  94.0213 266.1060 13.12442470175786
ONEWEB-0297             
1 49086U 21075M   25084.68506941  .00000084  00000+0  19864-3 0  9992
2 49086  87.8815  79.9461 0001895  89.9444 270.1902 13.12441571176355
ONEWEB-0298             
1 49087U 21075N   25084.78902430  .00000069  00000+0  14377-3 0  9994
2 49087  87.9004  95.1961 0001960  97.4508 262.6846 13.17651023174575
ONEWEB-0299             
1 49088U 21075P   25084.71462794  .00000111  00000+0  25346-3 0  9998
2 49088  87.8999  95.1680 0001927  99.0124 261.1226 13.17652785174540
ONEWEB-0300             
1 49089U 21075Q   25084.90567313  .00000277  00000+0  73398-3 0  9996
2 49089  87.8803  79.8658 0002243  89.3533 270.7853 13.12441002176409
ONEWEB-0301             
1 49090U 21075R   25084.96568876  .00000456  00000+0  12320-2 0  9995
2 49090  87.8806  79.8591 0002202  88.1019 272.0361 13.12442676175777
ONEWEB-0302             
1 49091U 21075S   25084.72399702  .00000170  00000+0  43606-3 0  9995
2 49091  87.8805  79.9079 0001499  81.9782 278.1517 13.12442791175727
ONEWEB-0304             
1 49092U 21075T   25084.99307211  .00000064  00000+0  13196-3 0  9992
2 49092  87.8998  95.1393 0001798  94.5610 265.5727 13.17650435175535
ONEWEB-0305             
1 49093U 21075U   25084.45476786  .00000032  00000+0  50161-4 0  9997
2 49093  87.8996  95.2265 0001773 104.9213 255.2115 13.17650081174512
ONEWEB-0308             
1 49094U 21075V   25084.71750941 -.00000039  00000+0 -14446-3 0  9999
2 49094  87.8805  79.9052 0001962  87.4281 272.7072 13.12445622175734
ONEWEB-0309             
1 49095U 21075W   25085.06564403  .00000096  00000+0  21300-3 0  9993
2 49095  87.9002  95.1180 0001549  81.1517 278.9790 13.17649863175554
ONEWEB-0310             
1 49096U 21075X   25084.96082999  .00000434  00000+0  11697-2 0  9990
2 49096  87.8815  79.8905 0001822  84.3507 275.7829 13.12444415176390
ONEWEB-0311             
1 49097U 21075Y   25084.76864717  .00000072  00000+0  15335-3 0  9997
2 49097  87.9000  95.1787 0001872 104.2512 255.8828 13.17650178174576
ONEWEB-0312             
1 49098U 21075Z   25084.78383588  .00000098  00000+0  21996-3 0  9990
2 49098  87.9000  95.2069 0001547  97.9546 262.1761 13.17650207174553
ONEWEB-0313             
1 49099U 21075AA  25085.09247273 -.00001998  00000+0 -51804-2 0  9998
2 49099  87.9004  95.1607 0002060  96.2566 263.8800 13.17658368175582
ONEWEB-0314             
1 49100U 21075AB  25085.05888352  .00000023  00000+0  26856-4 0  9993
2 49100  87.8998  95.1020 0001583 100.2626 259.8684 13.17649725175545
ONEWEB-0315             
1 49101U 21075AC  25084.70613837 -.00000392  00000+0 -11245-2 0  9994
2 49101  87.8804  79.8983 0002017  99.8274 260.3082 13.12440983176342
ONEWEB-0316             
1 49102U 21075AD  25083.97064953  .00000089  00000+0  19254-3 0  9992
2 49102  87.9077  64.7714 0001885  91.8536 268.2812 13.18687012178001
ONEWEB-0317             
1 49103U 21075AE  25084.92837491 -.00000290  00000+0 -84091-3 0  9991
2 49103  87.8806  79.8679 0002085  74.9790 285.1569 13.12441933176396
ONEWEB-0318             
1 49104U 21075AF  25084.87800226  .00000117  00000+0  26307-3 0  9994
2 49104  87.9076  64.5765 0001906  94.7784 265.3565 13.18687212178080
ONEWEB-0319             
1 49105U 21075AG  25084.77032365  .00000074  00000+0  15659-3 0  9995
2 49105  87.9001  95.2035 0001862 105.9254 254.2083 13.17651525174555
ONEWEB-0323             
1 49106U 21075AH  25085.22358620 -.00000106  00000+0 -32973-3 0  9998
2 49106  87.8807  79.7950 0001849 111.9874 248.1451 13.12440343176790
ONEWEB-0329             
1 49107U 21075AJ  25085.08252057 -.00000023  00000+0 -91971-4 0  9992
2 49107  87.9002  95.1457 0001756  95.6767 264.4565 13.17649429175561
ONEWEB-0330             
1 49108U 21075AK  25084.47671132  .00000186  00000+0  44574-3 0  9998
2 49108  87.9004  95.2690 0001657  91.2840 268.8481 13.17651322174534
ONEWEB-0292             
1 49186U 21083A   25084.63190234 -.00000081  00000+0 -25756-3 0  9997
2 49186  87.8943  49.4093 0001982  88.6372 271.4984 13.13474140172049
ONEWEB-0303             
1 49187U 21083B   25084.64721533  .00000097  00000+0  21326-3 0  9995
2 49187  87.9077  64.6246 0001943  92.2928 267.8426 13.18687428170861
ONEWEB-0306             
1 49188U 21083C   25084.63770664  .00000089  00000+0  19321-3 0  9997
2 49188  87.9078  64.6115 0001857  80.4168 279.7174 13.18687911170901
ONEWEB-0307             
1 49189U 21083D   25084.62595739 -.00000155  00000+0 -46027-3 0  9994
2 49189  87.8942  49.4134 0001767  73.1864 286.9459 13.13470054172041
ONEWEB-0320             
1 49190U 21083E   25085.17518563  .00000026  00000+0  33443-4 0  9991
2 49190  87.9079  64.5323 0001875  85.5171 274.6176 13.18687246172218
ONEWEB-0321             
1 49191U 21083F   25084.72075799  .00000117  00000+0  25592-3 0  9997
2 49191  87.9335   3.7000 0002011  68.6662 291.4685 13.20775107177631
ONEWEB-0322             
1 49192U 21083G   25084.62173232 -.00000173  00000+0 -50954-3 0  9992
2 49192  87.8943  49.4035 0002051  71.4911 288.6441 13.13470682172033
ONEWEB-0324             
1 49193U 21083H   25084.62981465  .00000048  00000+0  88590-4 0  9995
2 49193  87.9078  64.6208 0001679  88.2264 271.9060 13.18687641170880
ONEWEB-0325             
1 49194U 21083J   25084.63455862  .00000359  00000+0  87773-3 0  9990
2 49194  87.9076  64.6373 0002045  83.4811 276.6554 13.18685174170895
ONEWEB-0326             
1 49195U 21083K   25084.64890852  .00000126  00000+0  28777-3 0  9995
2 49195  87.9075  64.6263 0001966  98.8273 261.3082 13.18687952170888
ONEWEB-0327             
1 49196U 21083L   25084.95215748  .00000009  00000+0 -11111-4 0  9991
2 49196  87.9079  64.5934 0002075  94.7703 265.3666 13.18685740170944
